{"type": "FeatureCollection", "features": [ {"type": "Feature", "properties": {"norad_id": 66809, "name": "STARLINK-35979", "group": "last-30-days", "lat": 3.362839450196719, "lon": 172.87031035562694, "alt_km": 414.5801346711578, "timestamp": "2025-12-26T13:39:17.665469+00:00", "meta": {"OBJECT_NAME": "STARLINK-35979", "OBJECT_ID": "2025-278U", "EPOCH": "2025-12-26T06:00:02.999808", "MEAN_MOTION": 15.50534069, "ECCENTRICITY": 0.00017895, "INCLINATION": 43.0004, "RA_OF_ASC_NODE": 171.1208, "ARG_OF_PERICENTER": 265.4751, "MEAN_ANOMALY": 117.1943, "EPHEMERIS_TYPE": 0, "CLASSIFICATION_TYPE": "U", "NORAD_CAT_ID": 66809, "ELEMENT_SET_NO": 999, "REV_AT_EPOCH": 513, "BSTAR": 0.0005883598, "MEAN_MOTION_DOT": 0.00034271, "MEAN_MOTION_DDOT": 0}, "tle": {"line1": "1 66809U 25278U   25360.25003472  .00034271  00000+0  58836-3 0  9991", "line2": "2 66809  43.0004 171.1208 0001789 265.4751 117.1943 15.50534069  5130"}}, "geometry": {"type": "Point", "coordinates": [172.87031035562694, 3.362839450196719]}}, {"type": "Feature", "properties": {"norad_id": 66810, "name": "STARLINK-36046", "group": "last-30-days", "lat": 0.7457078735149181, "lon": 170.06702538291796, "alt_km": 414.78538759388994, "timestamp": "2025-12-26T13:39:17.665481+00:00", "meta": {"OBJECT_NAME": "STARLINK-36046", "OBJECT_ID": "2025-278V", "EPOCH": "2025-12-26T06:00:02.999808", "MEAN_MOTION": 15.505339, "ECCENTRICITY": 0.00015521, "INCLINATION": 43.0003, "RA_OF_ASC_NODE": 171.1325, "ARG_OF_PERICENTER": 267.6022, "MEAN_ANOMALY": 111.2252, "EPHEMERIS_TYPE": 0, "CLASSIFICATION_TYPE": "U", "NORAD_CAT_ID": 66810, "ELEMENT_SET_NO": 999, "REV_AT_EPOCH": 490, "BSTAR": 0.00074432322, "MEAN_MOTION_DOT": 0.00043497, "MEAN_MOTION_DDOT": 0}, "tle": {"line1": "1 66810U 25278V   25360.25003472  .00043497  00000+0  74432-3 0  9993", "line2": "2 66810  43.0003 171.1325 0001552 267.6022 111.2252 15.50533900  4909"}}, "geometry": {"type": "Point", "coordinates": [170.06702538291796, 0.7457078735149181]}}, {"type": "Feature", "properties": {"norad_id": 66811, "name": "STARLINK-36045", "group": "last-30-days", "lat": 2.0537995516611485, "lon": 171.4664887384897, "alt_km": 414.6692715599811, "timestamp": "2025-12-26T13:39:17.665491+00:00", "meta": {"OBJECT_NAME": "STARLINK-36045", "OBJECT_ID": "2025-278W", "EPOCH": "2025-12-26T06:00:02.999808", "MEAN_MOTION": 15.50535526, "ECCENTRICITY": 0.00015779, "INCLINATION": 43.0003, "RA_OF_ASC_NODE": 171.1268, "ARG_OF_PERICENTER": 266.6003, "MEAN_ANOMALY": 114.1457, "EPHEMERIS_TYPE": 0, "CLASSIFICATION_TYPE": "U", "NORAD_CAT_ID": 66811, "ELEMENT_SET_NO": 999, "REV_AT_EPOCH": 513, "BSTAR": 0.00067102332, "MEAN_MOTION_DOT": 0.0003916, "MEAN_MOTION_DDOT": 0}, "tle": {"line1": "1 66811U 25278W   25360.25003472  .00039160  00000+0  67102-3 0  9992", "line2": "2 66811  43.0003 171.1268 0001577 266.6003 114.1457 15.50535526  5132"}}, "geometry": {"type": "Point", "coordinates": [171.4664887384897, 2.0537995516611485]}}, {"type": "Feature", "properties": {"norad_id": 66812, "name": "STARLINK-36054", "group": "last-30-days", "lat": 4.665424558285874, "lon": 174.27522560173574, "alt_km": 414.41986229795293, "timestamp": "2025-12-26T13:39:17.665501+00:00", "meta": {"OBJECT_NAME": "STARLINK-36054", "OBJECT_ID": "2025-278X", "EPOCH": "2025-12-26T06:00:02.999808", "MEAN_MOTION": 15.50533865, "ECCENTRICITY": 0.00016438, "INCLINATION": 43.0004, "RA_OF_ASC_NODE": 171.1169, "ARG_OF_PERICENTER": 265.7621, "MEAN_ANOMALY": 118.825, "EPHEMERIS_TYPE": 0, "CLASSIFICATION_TYPE": "U", "NORAD_CAT_ID": 66812, "ELEMENT_SET_NO": 999, "REV_AT_EPOCH": 513, "BSTAR": 0.00058481015, "MEAN_MOTION_DOT": 0.00034061, "MEAN_MOTION_DDOT": 0}, "tle": {"line1": "1 66812U 25278X   25360.25003472  .00034061  00000+0  58481-3 0  9998", "line2": "2 66812  43.0004 171.1169 0001643 265.7621 118.8250 15.50533865  5130"}}, "geometry": {"type": "Point", "coordinates": [174.27522560173574, 4.665424558285874]}}, {"type": "Feature", "properties": {"norad_id": 66813, "name": "STARLINK-36042", "group": "last-30-days", "lat": 5.967856616733, "lon": 175.6866803529215, "alt_km": 414.3938020280975, "timestamp": "2025-12-26T13:39:17.665511+00:00", "meta": {"OBJECT_NAME": "STARLINK-36042", "OBJECT_ID": "2025-278Y", "EPOCH": "2025-12-26T06:00:02.999808", "MEAN_MOTION": 15.50534709, "ECCENTRICITY": 0.00016069, "INCLINATION": 43.0004, "RA_OF_ASC_NODE": 171.1114, "ARG_OF_PERICENTER": 258.9199, "MEAN_ANOMALY": 127.5871, "EPHEMERIS_TYPE": 0, "CLASSIFICATION_TYPE": "U", "NORAD_CAT_ID": 66813, "ELEMENT_SET_NO": 999, "REV_AT_EPOCH": 513, "BSTAR": 0.00057044613, "MEAN_MOTION_DOT": 0.00033213, "MEAN_MOTION_DDOT": 0}, "tle": {"line1": "1 66813U 25278Y   25360.25003472  .00033213  00000+0  57045-3 0  9992", "line2": "2 66813  43.0004 171.1114 0001606 258.9199 127.5871 15.50534709  5138"}}, "geometry": {"type": "Point", "coordinates": [175.6866803529215, 5.967856616733]}}, {"type": "Feature", "properties": {"norad_id": 66814, "name": "STARLINK-35984", "group": "last-30-days", "lat": 13.728306046352781, "lon": -175.58291003891136, "alt_km": 413.00731619490125, "timestamp": "2025-12-26T13:39:17.665520+00:00", "meta": {"OBJECT_NAME": "STARLINK-35984", "OBJECT_ID": "2025-278Z", "EPOCH": "2025-12-26T04:17:31.361280", "MEAN_MOTION": 15.50601996, "ECCENTRICITY": 0.00023567, "INCLINATION": 42.9998, "RA_OF_ASC_NODE": 171.5011, "ARG_OF_PERICENTER": 273.0476, "MEAN_ANOMALY": 87.0114, "EPHEMERIS_TYPE": 0, "CLASSIFICATION_TYPE": "U", "NORAD_CAT_ID": 66814, "ELEMENT_SET_NO": 999, "REV_AT_EPOCH": 394, "BSTAR": 0.0013702707, "MEAN_MOTION_DOT": 0.00080951, "MEAN_MOTION_DDOT": 0}, "tle": {"line1": "1 66814U 25278Z   25360.17883520  .00080951  00000+0  13703-2 0  9997", "line2": "2 66814  42.9998 171.5011 0002356 273.0476  87.0114 15.50601996  3948"}}, "geometry": {"type": "Point", "coordinates": [-175.58291003891136, 13.728306046352781]}}, {"type": "Feature", "properties": {"norad_id": 66815, "name": "STARLINK-35985", "group": "last-30-days", "lat": 12.398063213263205, "lon": -177.1328008998275, "alt_km": 413.4725684795412, "timestamp": "2025-12-26T13:39:17.665532+00:00", "meta": {"OBJECT_NAME": "STARLINK-35985", "OBJECT_ID": "2025-278AA", "EPOCH": "2025-12-26T06:00:02.999808", "MEAN_MOTION": 15.50521726, "ECCENTRICITY": 0.00017735, "INCLINATION": 43.0004, "RA_OF_ASC_NODE": 171.0881, "ARG_OF_PERICENTER": 268.7356, "MEAN_ANOMALY": 127.3556, "EPHEMERIS_TYPE": 0, "CLASSIFICATION_TYPE": "U", "NORAD_CAT_ID": 66815, "ELEMENT_SET_NO": 999, "REV_AT_EPOCH": 521, "BSTAR": 0.00099224268, "MEAN_MOTION_DOT": 0.00058184, "MEAN_MOTION_DDOT": 0}, "tle": {"line1": "1 66815U 25278AA  25360.25003472  .00058184  00000+0  99224-3 0  9993", "line2": "2 66815  43.0004 171.0881 0001773 268.7356 127.3556 15.50521726  5211"}}, "geometry": {"type": "Point", "coordinates": [-177.1328008998275, 12.398063213263205]}}, {"type": "Feature", "properties": {"norad_id": 66816, "name": "STARLINK-36098", "group": "last-30-days", "lat": 7.259006448941461, "lon": 177.0986879889835, "alt_km": 414.09409242128186, "timestamp": "2025-12-26T13:39:17.665542+00:00", "meta": {"OBJECT_NAME": "STARLINK-36098", "OBJECT_ID": "2025-278AB", "EPOCH": "2025-12-26T06:00:02.999808", "MEAN_MOTION": 15.50530463, "ECCENTRICITY": 0.000148, "INCLINATION": 43.0003, "RA_OF_ASC_NODE": 171.1081, "ARG_OF_PERICENTER": 265.1125, "MEAN_ANOMALY": 123.3028, "EPHEMERIS_TYPE": 0, "CLASSIFICATION_TYPE": "U", "NORAD_CAT_ID": 66816, "ELEMENT_SET_NO": 999, "REV_AT_EPOCH": 497, "BSTAR": 0.00083765413, "MEAN_MOTION_DOT": 0.00049023, "MEAN_MOTION_DDOT": 0}, "tle": {"line1": "1 66816U 25278AB  25360.25003472  .00049023  00000+0  83765-3 0  9999", "line2": "2 66816  43.0003 171.1081 0001480 265.1125 123.3028 15.50530463  4974"}}, "geometry": {"type": "Point", "coordinates": [177.0986879889835, 7.259006448941461]}}, {"type": "Feature", "properties": {"norad_id": 66817, "name": "STARLINK-35995", "group": "last-30-days", "lat": 9.84360119563787, "lon": 179.96220637815642, "alt_km": 413.7966317972996, "timestamp": "2025-12-26T13:39:17.665570+00:00", "meta": {"OBJECT_NAME": "STARLINK-35995", "OBJECT_ID": "2025-278AC", "EPOCH": "2025-12-26T06:00:02.999808", "MEAN_MOTION": 15.50534889, "ECCENTRICITY": 0.00015174, "INCLINATION": 43.0004, "RA_OF_ASC_NODE": 171.0968, "ARG_OF_PERICENTER": 265.4714, "MEAN_ANOMALY": 126.7839, "EPHEMERIS_TYPE": 0, "CLASSIFICATION_TYPE": "U", "NORAD_CAT_ID": 66817, "ELEMENT_SET_NO": 999, "REV_AT_EPOCH": 513, "BSTAR": 0.00060741313, "MEAN_MOTION_DOT": 0.00035398, "MEAN_MOTION_DDOT": 0}, "tle": {"line1": "1 66817U 25278AC  25360.25003472  .00035398  00000+0  60741-3 0  9999", "line2": "2 66817  43.0004 171.0968 0001517 265.4714 126.7839 15.50534889  5139"}}, "geometry": {"type": "Point", "coordinates": [179.96220637815642, 9.84360119563787]}}, {"type": "Feature", "properties": {"norad_id": 66818, "name": "STARLINK-35994", "group": "last-30-days", "lat": -4.788156003606531, "lon": 164.1285970643652, "alt_km": 435.9735632326601, "timestamp": "2025-12-26T13:39:17.665583+00:00", "meta": {"OBJECT_NAME": "STARLINK-35994", "OBJECT_ID": "2025-278AD", "EPOCH": "2025-12-26T06:00:02.999808", "MEAN_MOTION": 15.4503217, "ECCENTRICITY": 0.00018375, "INCLINATION": 43.001, "RA_OF_ASC_NODE": 171.1339, "ARG_OF_PERICENTER": 264.3236, "MEAN_ANOMALY": 113.5706, "EPHEMERIS_TYPE": 0, "CLASSIFICATION_TYPE": "U", "NORAD_CAT_ID": 66818, "ELEMENT_SET_NO": 999, "REV_AT_EPOCH": 513, "BSTAR": -0.048691349, "MEAN_MOTION_DOT": -0.02087999, "MEAN_MOTION_DDOT": 0}, "tle": {"line1": "1 66818U 25278AD  25360.25003472 -.02087999  00000+0 -48691-1 0  9996", "line2": "2 66818  43.0010 171.1339 0001837 264.3236 113.5706 15.45032170  5139"}}, "geometry": {"type": "Point", "coordinates": [164.1285970643652, -4.788156003606531]}}]}